NORAD_CAT_ID,OBJECT_NAME,OBJECT_TYPE,EPOCH,MEAN_MOTION,ECCENTRICITY,INCLINATION,RA_OF_ASC_NODE,ARG_OF_PERICENTER,MEAN_ANOMALY,BSTAR,MEAN_MOTION_DOT,MEAN_MOTION_DDOT,TLE_LINE0,TLE_LINE1,TLE_LINE2,SEMIMAJOR_AXIS,PERIOD,APOGEE,PERIGEE,DECAYED
50167.0,STARLINK-3271,PAYLOAD,2024-07-06 02:09:17,15.08844864,0.000141,53.2157,124.7078,100.3266,259.7885,0.00067202,0.00010425,0.0,0 STARLINK-3271,1 50167U 21125M   24188.08978246  .00010425  00000-0  67202-3 0  9999,2 50167  53.2157 124.7078 0001410 100.3266 259.7885 15.08844864143647,6917.866,95.437,540.706,538.755,0.0
50167.0,STARLINK-3271,PAYLOAD,2024-07-06 13:16:59,15.0884532,0.0001342,53.2155,122.6259,106.5445,253.5695,0.00085744,0.00013386,0.0,0 STARLINK-3271,1 50167U 21125M   24188.55346316  .00013386  00000-0  85744-3 0  9998,2 50167  53.2155 122.6259 0001342 106.5445 253.5695 15.08845320144194,6917.864,95.437,540.658,538.801,0.0
50167.0,STARLINK-3271,PAYLOAD,2024-07-06 22:49:18,15.08841997,0.0001813,53.2181,120.8411,106.7822,253.3369,0.00045609,6.978e-05,0.0,0 STARLINK-3271,1 50167U 21125M   24188.95090573  .00006978  00000-0  45609-3 0  9998,2 50167  53.2181 120.8411 0001813 106.7822 253.3369 15.08841997144256,6917.874,95.437,540.993,538.485,0.0
50167.0,STARLINK-3271,PAYLOAD,2024-07-07 05:10:50,15.08840276,0.000153,53.217,119.6532,97.303,262.8136,0.00016989,2.417e-05,0.0,0 STARLINK-3271,1 50167U 21125M   24189.21586538  .00002417  00000-0  16989-3 0  9992,2 50167  53.2170 119.6532 0001530  97.3030 262.8136 15.08840276143813,6917.88,95.438,540.803,538.686,0.0
50167.0,STARLINK-3271,PAYLOAD,2024-07-07 22:40:05,15.08845322,0.0001503,53.2164,116.3808,102.7288,257.3872,0.00030453,4.563e-05,0.0,0 STARLINK-3271,1 50167U 21125M   24189.94450542  .00004563  00000-0  30453-3 0  9993,2 50167  53.2164 116.3808 0001503 102.7288 257.3872 15.08845322144401,6917.864,95.437,540.769,538.689,0.0
50167.0,STARLINK-3271,PAYLOAD,2024-07-08 19:20:05,15.08845997,0.0001511,53.2167,112.516,99.6856,260.4307,0.00022522,3.299e-05,0.0,0 STARLINK-3271,1 50167U 21125M   24190.80562449  .00003299  00000-0  22522-3 0  9993,2 50167  53.2167 112.5160 0001511  99.6856 260.4307 15.08845997144054,6917.862,95.437,540.772,538.682,0.0
50167.0,STARLINK-3271,PAYLOAD,2024-07-08 22:30:52,15.08842085,0.0001501,53.2166,111.9206,101.6289,258.4872,0.00013897,1.925e-05,0.0,0 STARLINK-3271,1 50167U 21125M   24190.93810546  .00001925  00000-0  13897-3 0  9990,2 50167  53.2166 111.9206 0001501 101.6289 258.4872 15.08842085144554,6917.874,95.437,540.777,538.701,0.0
50167.0,STARLINK-3271,PAYLOAD,2024-07-09 11:13:56,15.08851163,0.0001297,53.2157,109.5429,95.3077,264.8064,0.00019606,2.835e-05,0.0,0 STARLINK-3271,1 50167U 21125M   24191.46801953  .00002835  00000-0  19606-3 0  9996,2 50167  53.2157 109.5429 0001297  95.3077 264.8064 15.08851163144630,6917.846,95.437,540.609,538.814,0.0
50167.0,STARLINK-3271,PAYLOAD,2024-07-09 19:10:53,15.08822459,0.0001143,53.2154,108.0552,87.7239,272.3884,-0.00020967,-3.621e-05,0.0,0 STARLINK-3271,1 50167U 21125M   24191.79923472 -.00003621  00000-0 -20967-3 0  9991,2 50167  53.2154 108.0552 0001143  87.7239 272.3884 15.08822459144206,6917.934,95.439,540.59,539.008,0.0
50167.0,STARLINK-3271,PAYLOAD,2024-07-09 22:21:40,15.08827617,0.0001352,53.2152,107.4611,93.4478,266.6669,-0.00012603,-2.292e-05,0.0,0 STARLINK-3271,1 50167U 21125M   24191.93171306 -.00002292  00000-0 -12603-3 0  9999,2 50167  53.2152 107.4611 0001352  93.4478 266.6669 15.08827617144707,6917.918,95.438,540.719,538.848,0.0
50167.0,STARLINK-3271,PAYLOAD,2024-07-10 01:32:26,15.08830242,0.0001443,53.2161,106.8716,99.6903,260.4252,-5.5749e-05,-1.175e-05,0.0,0 STARLINK-3271,1 50167U 21125M   24192.06419240 -.00001175  00000-0 -55749-4 0  9994,2 50167  53.2161 106.8716 0001443  99.6903 260.4252 15.08830242144245,6917.91,95.438,540.773,538.777,0.0
50167.0,STARLINK-3271,PAYLOAD,2024-07-10 11:04:44,15.08841235,0.00012,53.2152,105.0793,78.9478,281.1649,0.0001088,1.444e-05,0.0,0 STARLINK-3271,1 50167U 21125M   24192.46162738  .00001444  00000-0  10880-3 0  9998,2 50167  53.2152 105.0793 0001200  78.9478 281.1649 15.08841235144300,6917.877,95.437,540.572,538.911,0.0
50167.0,STARLINK-3271,PAYLOAD,2024-07-10 22:12:27,15.08832503,0.0001624,53.2165,103.0028,92.1028,268.015,5.6514e-05,6.11e-06,0.0,0 STARLINK-3271,1 50167U 21125M   24192.92531479  .00000611  00000-0  56514-4 0  9991,2 50167  53.2165 103.0028 0001624  92.1028 268.0150 15.08832503144851,6917.903,95.438,540.892,538.645,0.0
50167.0,STARLINK-3271,PAYLOAD,2024-07-11 02:58:36,15.08835416,0.0001758,53.2167,102.1088,87.2924,272.8269,9.7052e-05,1.257e-05,0.0,0 STARLINK-3271,1 50167U 21125M   24193.12403465  .00001257  00000-0  97052-4 0  9996,2 50167  53.2167 102.1088 0001758  87.2924 272.8269 15.08835416144408,6917.894,95.438,540.976,538.543,0.0
50167.0,STARLINK-3271,PAYLOAD,2024-07-12 10:46:18,15.08848266,0.0001251,53.2152,96.1603,86.4622,273.6513,0.00017996,2.578e-05,0.0,0 STARLINK-3271,1 50167U 21125M   24194.44882811  .00002578  00000-0  17996-3 0  9993,2 50167  53.2152  96.1603 0001251  86.4622 273.6513 15.08848266144601,6917.855,95.437,540.586,538.855,0.0
50167.0,STARLINK-3271,PAYLOAD,2024-07-12 17:07:51,15.08840219,0.0002055,53.2168,94.9782,85.7752,274.3475,0.00013539,1.867e-05,0.0,0 STARLINK-3271,1 50167U 21125M   24194.71379596  .00001867  00000-0  13539-3 0  9993,2 50167  53.2168  94.9782 0002055  85.7752 274.3475 15.08840219144640,6917.88,95.438,541.166,538.323,0.0
50167.0,STARLINK-3271,PAYLOAD,2024-07-12 21:54:01,15.08830994,0.0001551,53.2173,94.0843,88.1089,272.008,7.9099e-08,-2.87e-06,0.0,0 STARLINK-3271,1 50167U 21125M   24194.91252042 -.00000287  00000-0  79099-7 0  9994,2 50167  53.2173  94.0843 0001551  88.1089 272.0080 15.08830994145158,6917.908,95.438,540.846,538.7,0.0
50167.0,STARLINK-3271,PAYLOAD,2024-07-13 10:37:05,15.08849403,0.000133,53.2153,91.702,110.9559,249.1576,0.00024802,3.663e-05,0.0,0 STARLINK-3271,1 50167U 21125M   24195.44243032  .00003663  00000-0  24802-3 0  9990,2 50167  53.2153  91.7020 0001330 110.9559 249.1576 15.08849403145237,6917.852,95.437,540.637,538.797,0.0
50167.0,STARLINK-3271,PAYLOAD,2024-07-13 21:44:48,15.0884622,0.0001469,53.2166,89.6202,95.2297,264.8863,0.00022398,3.279e-05,0.0,0 STARLINK-3271,1 50167U 21125M   24195.90611356  .00003279  00000-0  22398-3 0  9990,2 50167  53.2166  89.6202 0001469  95.2297 264.8863 15.08846220144827,6917.861,95.437,540.743,538.71,0.0
50167.0,STARLINK-3271,PAYLOAD,2024-07-13 23:20:11,15.08845321,0.0001426,53.2166,89.3231,93.3806,266.7349,0.00023175,3.403e-05,0.0,0 STARLINK-3271,1 50167U 21125M   24195.97235400  .00003403  00000-0  23175-3 0  9992,2 50167  53.2166  89.3231 0001426  93.3806 266.7349 15.08845321145310,6917.864,95.437,540.716,538.743,0.0
50167.0,STARLINK-3271,PAYLOAD,2024-07-14 10:27:52,15.08856669,0.0001509,53.2165,87.2408,94.9252,265.1913,0.00040687,6.196e-05,0.0,0 STARLINK-3271,1 50167U 21125M   24196.43602781  .00006196  00000-0  40687-3 0  9993,2 50167  53.2165  87.2408 0001509  94.9252 265.1913 15.08856669145380,6917.829,95.437,540.738,538.651,0.0
50167.0,STARLINK-3271,PAYLOAD,2024-07-14 21:35:34,15.0884928,0.0001545,53.2151,85.1594,104.0283,256.0881,0.00031204,4.683e-05,0.0,0 STARLINK-3271,1 50167U 21125M   24196.89971017  .00004683  00000-0  31204-3 0  9998,2 50167  53.2151  85.1594 0001545 104.0283 256.0881 15.08849280145457,6917.852,95.437,540.786,538.648,0.0
50167.0,STARLINK-3271,PAYLOAD,2024-07-15 02:21:44,15.0885279,0.000155,53.2161,84.2669,107.6722,252.444,0.00059591,9.212e-05,0.0,0 STARLINK-3271,1 50167U 21125M   24197.09842908  .00009212  00000-0  59591-3 0  9999,2 50167  53.2161  84.2669 0001550 107.6722 252.4440 15.08852790145006,6917.841,95.437,540.779,538.634,0.0
50167.0,STARLINK-3271,PAYLOAD,2024-07-15 21:26:22,15.08842425,0.0001679,53.2165,80.6934,116.6928,243.4236,0.00033013,4.97e-05,0.0,0 STARLINK-3271,1 50167U 21125M   24197.89331165  .00004970  00000-0  33013-3 0  9992,2 50167  53.2165  80.6934 0001679 116.6928 243.4236 15.08842425145125,6917.873,95.437,540.899,538.576,0.0
50167.0,STARLINK-3271,PAYLOAD,2024-07-15 23:01:45,15.08842619,0.0001314,53.2164,80.4014,89.7376,270.3767,0.00027174,4.04e-05,0.0,0 STARLINK-3271,1 50167U 21125M   24197.95955317  .00004040  00000-0  27174-3 0  9999,2 50167  53.2164  80.4014 0001314  89.7376 270.3767 15.08842619145611,6917.872,95.437,540.646,538.828,0.0
50167.0,STARLINK-3271,PAYLOAD,2024-07-16 21:17:09,15.08847636,0.0001243,53.2166,76.2388,88.3481,271.7654,0.00037453,5.679e-05,0.0,0 STARLINK-3271,1 50167U 21125M   24198.88691216  .00005679  00000-0  37453-3 0  9997,2 50167  53.2166  76.2388 0001243  88.3481 271.7654 15.08847636145279,6917.857,95.437,540.582,538.862,0.0
50167.0,STARLINK-3271,PAYLOAD,2024-07-17 08:24:50,15.0886643,0.0001215,53.2169,74.1603,91.6123,268.5008,0.00062414,9.666e-05,0.0,0 STARLINK-3271,1 50167U 21125M   24199.35058236  .00009666  00000-0  62414-3 0  9994,2 50167  53.2169  74.1603 0001215  91.6123 268.5008 15.08866430145346,6917.8,95.436,540.505,538.824,0.0
50167.0,STARLINK-3271,PAYLOAD,2024-07-17 21:07:56,15.08814062,0.0001212,53.2168,71.7796,103.7536,256.3591,-0.00064128,-0.00010472,0.0,0 STARLINK-3271,1 50167U 21125M   24199.88051901 -.00010472  00000-0 -64128-3 0  9997,2 50167  53.2168  71.7796 0001212 103.7536 256.3591 15.08814062145426,6917.96,95.439,540.663,538.986,0.0
50167.0,STARLINK-3271,PAYLOAD,2024-07-17 22:43:20,15.08814996,0.0001274,53.2171,71.4837,112.0348,248.078,-0.00055837,-9.157e-05,0.0,0 STARLINK-3271,1 50167U 21125M   24199.94675970 -.00009157  00000-0 -55837-3 0  9997,2 50167  53.2171  71.4837 0001274 112.0348 248.0780 15.08814996145913,6917.957,95.439,540.703,538.94,0.0
50167.0,STARLINK-3271,PAYLOAD,2024-07-18 08:15:39,15.08825005,0.0001252,53.2173,69.7028,120.8906,239.221,0.0001206,1.631e-05,0.0,0 STARLINK-3271,1 50167U 21125M   24200.34420399  .00001631  00000-0  12060-3 0  9995,2 50167  53.2173  69.7028 0001252 120.8906 239.2210 15.08825005145496,6917.926,95.439,540.657,538.925,0.0
